[{"OBJECT_NAME":"STARLINK-35990","OBJECT_ID":"2025-278B","EPOCH":"2026-03-09T12:08:00.109248","MEAN_MOTION":15.27586169,"ECCENTRICITY":9.933e-5,"INCLINATION":42.9974,"RA_OF_ASC_NODE":115.1677,"ARG_OF_PERICENTER":201.3802,"MEAN_ANOMALY":158.7008,"EPHEMERIS_TYPE":0,"CLASSIFICATION_TYPE":"U","NORAD_CAT_ID":66792,"ELEMENT_SET_NO":999,"REV_AT_EPOCH":1518,"BSTAR":0.00085070919,"MEAN_MOTION_DOT":0.00023226,"MEAN_MOTION_DDOT":0},{"OBJECT_NAME":"COSMOS 2251 DEB","OBJECT_ID":"1993-036BTX","EPOCH":"2026-02-28T17:34:44.973408","MEAN_MOTION":15.25753352,"ECCENTRICITY":0.00216382,"INCLINATION":73.9681,"RA_OF_ASC_NODE":229.3494,"ARG_OF_PERICENTER":13.6287,"MEAN_ANOMALY":346.5492,"EPHEMERIS_TYPE":0,"CLASSIFICATION_TYPE":"U","NORAD_CAT_ID":38487,"ELEMENT_SET_NO":999,"REV_AT_EPOCH":67986,"BSTAR":0.0024802785,"MEAN_MOTION_DOT":0.00064261,"MEAN_MOTION_DDOT":0}]
